[{"OBJECT_NAME":"STARLINK-3072","OBJECT_ID":"2021-082Z","EPOCH":"2026-03-09T21:37:49.965600","MEAN_MOTION":14.98311084,"ECCENTRICITY":0.00025109,"INCLINATION":69.9991,"RA_OF_ASC_NODE":253.9202,"ARG_OF_PERICENTER":265.2533,"MEAN_ANOMALY":94.8339,"EPHEMERIS_TYPE":0,"CLASSIFICATION_TYPE":"U","NORAD_CAT_ID":49153,"ELEMENT_SET_NO":999,"REV_AT_EPOCH":24820,"BSTAR":-3.4057024e-5,"MEAN_MOTION_DOT":-4.99e-6,"MEAN_MOTION_DDOT":0},{"OBJECT_NAME":"FENGYUN 1C DEB","OBJECT_ID":"1999-025DZR","EPOCH":"2026-03-05T18:23:02.039712","MEAN_MOTION":14.44079976,"ECCENTRICITY":0.0254198,"INCLINATION":98.2326,"RA_OF_ASC_NODE":48.4457,"ARG_OF_PERICENTER":237.9608,"MEAN_ANOMALY":119.6665,"EPHEMERIS_TYPE":0,"CLASSIFICATION_TYPE":"U","NORAD_CAT_ID":36695,"ELEMENT_SET_NO":999,"REV_AT_EPOCH":90766,"BSTAR":0.00026075166,"MEAN_MOTION_DOT":1.268e-5,"MEAN_MOTION_DDOT":0}]
